NOAA 15                 
1 25338U 98030A   24190.13717881  .00000300  00000+0  14224-3 0  9991
2 25338  98.5674 216.8257 0009085 262.4140  97.6009 14.26621635360426
NOAA 18                 
1 28654U 05018A   24190.16452404  .00000287  00000+0  17660-3 0  9990
2 28654  98.8743 266.9554 0014165   8.5629 351.5782 14.13247676986229
NOAA 19                 
1 33591U 09005A   24190.04808462  .00000265  00000+0  16638-3 0  9992
2 33591  99.0460 246.0670 0013084 230.4905 129.5111 14.13042357794577
SUOMI NPP               
1 37849U 11061A   24189.90604023  .00000120  00000+0  77849-4 0  9999
2 37849  98.7222 127.5755 0001066 130.6251 229.5018 14.19526229657800
NOAA 20 (JPSS-1)        
1 43013U 17073A   24189.92325023  .00000126  00000+0  80292-4 0  9992
2 43013  98.7064 127.4982 0001813 126.3163 233.8180 14.19540302343841
NOAA 21 (JPSS-2)        
1 54234U 22150A   24189.39503491  .00000104  00000+0  70405-4 0  9990
2 54234  98.7518 127.0525 0001961  85.7240 274.4160 14.19534875 85849
NOAA 1                  
1 04793U 70106A   24189.60956263 -.00000022  00000+0  13091-3 0  9999
2 04793 101.4447 241.0556 0031028 297.2899 190.6891 12.54029357451742
NOAA 2 (ITOS-D)         
1 06235U 72082A   24189.84048606 -.00000025  00000+0  13788-3 0  9992
2 06235 102.0149 189.0504 0004525  82.3130 346.2271 12.53182111366325
NOAA 3                  
1 06920U 73086A   24189.85324490 -.00000037  00000+0  65756-4 0  9993
2 06920 102.2756 186.0226 0006545 352.0751  83.6448 12.40368299294147
NOAA 4                  
1 07529U 74089A   24189.24566884 -.00000033  00000+0  80838-4 0  9995
2 07529 101.9872 183.6918 0009407 108.9013 262.4642 12.53181333270590
NOAA 5                  
1 09057U 76077A   24189.88567388 -.00000031  00000+0  11408-3 0  9996
2 09057 102.2077 163.2769 0009367 195.4424 219.9486 12.37801751166939
TIROS N                 
1 11060U 78096A   24189.58872648  .00000265  00000+0  14730-3 0  9990
2 11060  98.5308 229.2196 0011419 132.9678 227.2457 14.18843429578100
NOAA 6                  
1 11416U 79057A   24190.03733166  .00000492  00000+0  18981-3 0  9990
2 11416  98.6277 211.2347 0009819 192.0421 168.0530 14.34563222349450
NOAA 7                  
1 12553U 81059A   24189.80292443  .00000092  00000+0  67368-4 0  9999
2 12553  98.8925 249.1450 0012280 132.6021 227.6191 14.17540331224456
NOAA 8                  
1 13923U 83022A   24189.58539133  .00000219  00000+0  10370-3 0  9999
2 13923  98.7298 189.5851 0015095 169.2342 190.9165 14.29270264149683
NOAA 9                  
1 15427U 84123A   24189.93764919  .00000182  00000+0  11453-3 0  9996
2 15427  99.1179 187.8831 0014429 193.8126 224.4401 14.16615279 43223
NOAA 10                 
1 16969U 86073A   24190.20757325  .00000201  00000+0  97375-4 0  9999
2 16969  98.6412 175.9434 0010915 271.1950  99.4664 14.28643349968417
NOAA 11                 
1 19531U 88089A   24189.43239556  .00000098  00000+0  71455-4 0  9995
2 19531  98.5191 151.1063 0011183 170.6582 189.4803 14.15548425847050
NOAA 12                 
1 21263U 91032A   24189.90034601  .00000181  00000+0  93138-4 0  9993
2 21263  98.5578 180.5492 0012699 304.4297  55.5683 14.26332418724091
NOAA 13                 
1 22739U 93050A   24190.17273026  .00000182  00000+0  11968-3 0  9992
2 22739  98.6069 146.8808 0009542   0.9961 359.1229 14.13234020593450
NOAA 14                 
1 23455U 94089A   24190.17156500  .00000094  00000+0  70623-4 0  9994
2 23455  98.4323 185.0141 0008812 328.8384  31.2266 14.14406844523203
NOAA 16                 
1 26536U 00055A   24189.53902159  .00000126  00000+0  88725-4 0  9992
2 26536  98.5301 228.2055 0010635 171.2832 188.8528 14.13596801523450
NOAA 17                 
1 27453U 02032A   24190.19450284  .00000246  00000+0  12279-3 0  9992
2 27453  98.7637 140.7752 0010589 246.0361 113.9710 14.25608209145957
